start=new Date('2022-07-07T00:00:00.000Z').valueOf();
sats=[{"EPHEMERIS_TYPE":"0","OBJECT_NAME":"STARLINK-2641","LAUNCH_DATE":"2021-05-04","INCLINATION":"53.0549","SITE":"AFETR","COUNTRY_CODE":"US","PERIOD":"95.593","NORAD_CAT_ID":"48369","CLASSIFICATION_TYPE":"U","FILE":"3508782","REV_AT_EPOCH":"6486","MEAN_ELEMENT_THEORY":"SGP4","ELEMENT_SET_NO":"999","APOAPSIS":"548.300","REF_FRAME":"TEME","MEAN_MOTION":"15.06390997","RA_OF_ASC_NODE":"256.9310","MEAN_ANOMALY":"298.9418","ECCENTRICITY":"0.00015290","TLE_LINE1":"1 48369U 21038S   22187.50471809  .00003686  00000-0  26625-3 0  9995","GP_ID":"207538211","PERIAPSIS":"546.182","MEAN_MOTION_DOT":"0.00003686","BSTAR":"0.00026625000000","RCS_SIZE":"LARGE","SEMIMAJOR_AXIS":"6925.376","CENTER_NAME":"EARTH","TIME_SYSTEM":"UTC","ARG_OF_PERICENTER":"61.1724","OBJECT_ID":"2021-038S","TLE_LINE2":"2 48369  53.0549 256.9310 0001529  61.1724 298.9418 15.06390997 64866","MEAN_MOTION_DDOT":"0.0000000000000","EPOCH":"2022-07-06T12:06:47.642976","OBJECT_TYPE":"PAYLOAD","DECAY_DATE":null},{"BSTAR":"0.00022525000000","MEAN_MOTION_DOT":"0.00003073","RCS_SIZE":"LARGE","SEMIMAJOR_AXIS":"6925.408","CENTER_NAME":"EARTH","ARG_OF_PERICENTER":"65.7450","TIME_SYSTEM":"UTC","TLE_LINE2":"2 48370  53.0541 256.6488 0001610  65.7450 294.3707 15.06380635 64870","OBJECT_ID":"2021-038T","MEAN_MOTION_DDOT":"0.0000000000000","EPOCH":"2022-07-06T13:37:02.169408","OBJECT_TYPE":"PAYLOAD","DECAY_DATE":null,"EPHEMERIS_TYPE":"0","LAUNCH_DATE":"2021-05-04","OBJECT_NAME":"STARLINK-2621","INCLINATION":"53.0541","SITE":"AFETR","COUNTRY_CODE":"US","FILE":"3508782","PERIOD":"95.593","NORAD_CAT_ID":"48370","CLASSIFICATION_TYPE":"U","ELEMENT_SET_NO":"999","APOAPSIS":"548.388","MEAN_ELEMENT_THEORY":"SGP4","REV_AT_EPOCH":"6487","REF_FRAME":"TEME","RA_OF_ASC_NODE":"256.6488","MEAN_MOTION":"15.06380635","MEAN_ANOMALY":"294.3707","ECCENTRICITY":"0.00016100","TLE_LINE1":"1 48370U 21038T   22187.56738622  .00003073  00000-0  22525-3 0  9997","GP_ID":"207539461","PERIAPSIS":"546.158"},{"ELEMENT_SET_NO":"999","APOAPSIS":"548.294","REV_AT_EPOCH":"6487","MEAN_ELEMENT_THEORY":"SGP4","FILE":"3508782","PERIOD":"95.592","CLASSIFICATION_TYPE":"U","NORAD_CAT_ID":"48371","COUNTRY_CODE":"US","SITE":"AFETR","INCLINATION":"53.0547","LAUNCH_DATE":"2021-05-04","OBJECT_NAME":"STARLINK-2589","EPHEMERIS_TYPE":"0","PERIAPSIS":"546.142","GP_ID":"207539712","TLE_LINE1":"1 48371U 21038U   22187.56369064  .00002424  00000-0  18156-3 0  9992","MEAN_ANOMALY":"290.7667","ECCENTRICITY":"0.00015540","RA_OF_ASC_NODE":"256.6718","MEAN_MOTION":"15.06398573","REF_FRAME":"TEME","TLE_LINE2":"2 48371  53.0547 256.6718 0001554  69.3489 290.7667 15.06398573 64877","OBJECT_ID":"2021-038U","ARG_OF_PERICENTER":"69.3489","TIME_SYSTEM":"UTC","CENTER_NAME":"EARTH","SEMIMAJOR_AXIS":"6925.353","RCS_SIZE":"LARGE","MEAN_MOTION_DOT":"0.00002424","BSTAR":"0.00018156000000","DECAY_DATE":null,"OBJECT_TYPE":"PAYLOAD","EPOCH":"2022-07-06T13:31:42.871296","MEAN_MOTION_DDOT":"0.0000000000000"},{"APOAPSIS":"548.410","ELEMENT_SET_NO":"999","REV_AT_EPOCH":"6486","MEAN_ELEMENT_THEORY":"SGP4","FILE":"3508782","PERIOD":"95.594","CLASSIFICATION_TYPE":"U","NORAD_CAT_ID":"48372","COUNTRY_CODE":"US","SITE":"AFETR","INCLINATION":"53.0545","LAUNCH_DATE":"2021-05-04","OBJECT_NAME":"STARLINK-2572","EPHEMERIS_TYPE":"0","PERIAPSIS":"546.153","GP_ID":"207538461","TLE_LINE1":"1 48372U 21038V   22187.49366646  .00001935  00000-0  14888-3 0  9992","ECCENTRICITY":"0.00016290","MEAN_ANOMALY":"305.8766","MEAN_MOTION":"15.06377824","RA_OF_ASC_NODE":"256.9846","REF_FRAME":"TEME","TLE_LINE2":"2 48372  53.0545 256.9846 0001629  54.2374 305.8766 15.06377824 64863","OBJECT_ID":"2021-038V","TIME_SYSTEM":"UTC","ARG_OF_PERICENTER":"54.2374","CENTER_NAME":"EARTH","SEMIMAJOR_AXIS":"6925.417","RCS_SIZE":"LARGE","BSTAR":"0.00014888000000","MEAN_MOTION_DOT":"0.00001935","DECAY_DATE":null,"OBJECT_TYPE":"PAYLOAD","EPOCH":"2022-07-06T11:50:52.782144","MEAN_MOTION_DDOT":"0.0000000000000"},{"MEAN_MOTION_DOT":"0.00002379","BSTAR":"0.00017857000000","RCS_SIZE":"LARGE","SEMIMAJOR_AXIS":"6925.364","CENTER_NAME":"EARTH","TIME_SYSTEM":"UTC","ARG_OF_PERICENTER":"83.1054","TLE_LINE2":"2 48373  53.0536 256.3974 0001174  83.1054 277.0069 15.06394850 65473","OBJECT_ID":"2021-038W","MEAN_MOTION_DDOT":"0.0000000000000","EPOCH":"2022-07-06T14:56:37.665888","OBJECT_TYPE":"PAYLOAD","DECAY_DATE":null,"EPHEMERIS_TYPE":"0","LAUNCH_DATE":"2021-05-04","OBJECT_NAME":"STARLINK-2609","INCLINATION":"53.0536","SITE":"AFETR","COUNTRY_CODE":"US","FILE":"3508850","PERIOD":"95.592","CLASSIFICATION_TYPE":"U","NORAD_CAT_ID":"48373","APOAPSIS":"548.042","ELEMENT_SET_NO":"999","REV_AT_EPOCH":"6547","MEAN_ELEMENT_THEORY":"SGP4","REF_FRAME":"TEME","MEAN_MOTION":"15.06394850","RA_OF_ASC_NODE":"256.3974","ECCENTRICITY":"0.00011740","MEAN_ANOMALY":"277.0069","TLE_LINE1":"1 48373U 21038W   22187.62265817  .00002379  00000-0  17857-3 0  9998","GP_ID":"207543875","PERIAPSIS":"546.416"},{"DECAY_DATE":null,"MEAN_MOTION_DDOT":"0.0000000000000","OBJECT_TYPE":"PAYLOAD","EPOCH":"2022-07-06T13:14:26.853216","RCS_SIZE":"LARGE","SEMIMAJOR_AXIS":"6925.376","CENTER_NAME":"EARTH","TIME_SYSTEM":"UTC","ARG_OF_PERICENTER":"72.1382","TLE_LINE2":"2 48374  53.0533 256.7035 0001468  72.1382 287.9767 15.06390926 64879","OBJECT_ID":"2021-038X","MEAN_MOTION_DOT":"0.00004855","BSTAR":"0.00034469000000","TLE_LINE1":"1 48374U 21038X   22187.55169969  .00004855  00000-0  34469-3 0  9991","GP_ID":"207538963","PERIAPSIS":"546.225","REF_FRAME":"TEME","MEAN_MOTION":"15.06390926","RA_OF_ASC_NODE":"256.7035","MEAN_ANOMALY":"287.9767","ECCENTRICITY":"0.00014680","COUNTRY_CODE":"US","FILE":"3508782","PERIOD":"95.593","NORAD_CAT_ID":"48374","CLASSIFICATION_TYPE":"U","ELEMENT_SET_NO":"999","APOAPSIS":"548.258","REV_AT_EPOCH":"6487","MEAN_ELEMENT_THEORY":"SGP4","EPHEMERIS_TYPE":"0","LAUNCH_DATE":"2021-05-04","OBJECT_NAME":"STARLINK-2604","INCLINATION":"53.0533","SITE":"AFETR"},{"MEAN_MOTION_DDOT":"0.0000000000000","EPOCH":"2022-07-06T11:34:57.319968","OBJECT_TYPE":"PAYLOAD","DECAY_DATE":null,"BSTAR":"0.00017944000000","MEAN_MOTION_DOT":"0.00002391","CENTER_NAME":"EARTH","SEMIMAJOR_AXIS":"6925.394","RCS_SIZE":"LARGE","TLE_LINE2":"2 48375  53.0535 257.0310 0001623  70.4214 289.6950 15.06385135 64868","OBJECT_ID":"2021-038Y","TIME_SYSTEM":"UTC","ARG_OF_PERICENTER":"70.4214","MEAN_MOTION":"15.06385135","RA_OF_ASC_NODE":"257.0310","REF_FRAME":"TEME","MEAN_ANOMALY":"289.6950","ECCENTRICITY":"0.00016230","TLE_LINE1":"1 48375U 21038Y   22187.48260787  .00002391  00000-0  17944-3 0  9996","PERIAPSIS":"546.135","GP_ID":"207539213","LAUNCH_DATE":"2021-05-04","OBJECT_NAME":"STARLINK-2603","EPHEMERIS_TYPE":"0","SITE":"AFETR","INCLINATION":"53.0535","COUNTRY_CODE":"US","APOAPSIS":"548.383","ELEMENT_SET_NO":"999","REV_AT_EPOCH":"6486","MEAN_ELEMENT_THEORY":"SGP4","FILE":"3508782","PERIOD":"95.593","CLASSIFICATION_TYPE":"U","NORAD_CAT_ID":"48375"},{"MEAN_MOTION_DDOT":"0.0000000000000","EPOCH":"2022-07-06T11:29:38.738976","OBJECT_TYPE":"PAYLOAD","DECAY_DATE":null,"BSTAR":"0.00042528000000","MEAN_MOTION_DOT":"0.00006058","RCS_SIZE":"LARGE","SEMIMAJOR_AXIS":"6925.359","CENTER_NAME":"EARTH","ARG_OF_PERICENTER":"79.4856","TIME_SYSTEM":"UTC","OBJECT_ID":"2021-038Z","TLE_LINE2":"2 48376  53.0534 257.0524 0001321  79.4856 280.6282 15.06396669 64864","REF_FRAME":"TEME","MEAN_MOTION":"15.06396669","RA_OF_ASC_NODE":"257.0524","MEAN_ANOMALY":"280.6282","ECCENTRICITY":"0.00013210","TLE_LINE1":"1 48376U 21038Z   22187.47892059  .00006058  00000-0  42528-3 0  9999","GP_ID":"207537962","PERIAPSIS":"546.309","EPHEMERIS_TYPE":"0","OBJECT_NAME":"STARLINK-2610","LAUNCH_DATE":"2021-05-04","INCLINATION":"53.0534","SITE":"AFETR","COUNTRY_CODE":"US","PERIOD":"95.592","CLASSIFICATION_TYPE":"U","NORAD_CAT_ID":"48376","FILE":"3508782","REV_AT_EPOCH":"6486","MEAN_ELEMENT_THEORY":"SGP4","APOAPSIS":"548.139","ELEMENT_SET_NO":"999"},{"COUNTRY_CODE":"US","ELEMENT_SET_NO":"999","APOAPSIS":"548.303","REV_AT_EPOCH":"6486","MEAN_ELEMENT_THEORY":"SGP4","FILE":"3508782","CLASSIFICATION_TYPE":"U","PERIOD":"95.593","NORAD_CAT_ID":"48377","LAUNCH_DATE":"2021-05-04","OBJECT_NAME":"STARLINK-2499","EPHEMERIS_TYPE":"0","SITE":"AFETR","INCLINATION":"53.0537","TLE_LINE1":"1 48377U 21038AA  22187.47523356  .00002686  00000-0  19925-3 0  9999","PERIAPSIS":"546.230","GP_ID":"207538212","RA_OF_ASC_NODE":"257.0543","MEAN_MOTION":"15.06382700","REF_FRAME":"TEME","ECCENTRICITY":"0.00014970","MEAN_ANOMALY":"290.3762","CENTER_NAME":"EARTH","SEMIMAJOR_AXIS":"6925.402","RCS_SIZE":"LARGE","TLE_LINE2":"2 48377  53.0537 257.0543 0001497  69.7388 290.3762 15.06382700 64867","OBJECT_ID":"2021-038AA","ARG_OF_PERICENTER":"69.7388","TIME_SYSTEM":"UTC","MEAN_MOTION_DOT":"0.00002686","BSTAR":"0.00019925000000","DECAY_DATE":null,"MEAN_MOTION_DDOT":"0.0000000000000","EPOCH":"2022-07-06T11:24:20.179584","OBJECT_TYPE":"PAYLOAD"},{"LAUNCH_DATE":"2021-05-04","OBJECT_NAME":"STARLINK-2526","EPHEMERIS_TYPE":"0","SITE":"AFETR","INCLINATION":"53.0538","COUNTRY_CODE":"US","APOAPSIS":"548.311","ELEMENT_SET_NO":"999","REV_AT_EPOCH":"6487","MEAN_ELEMENT_THEORY":"SGP4","FILE":"3508782","PERIOD":"95.593","NORAD_CAT_ID":"48378","CLASSIFICATION_TYPE":"U","MEAN_MOTION":"15.06391810","RA_OF_ASC_NODE":"256.7863","REF_FRAME":"TEME","MEAN_ANOMALY":"286.9655","ECCENTRICITY":"0.00015480","TLE_LINE1":"1 48378U 21038AB  22187.53789761  .00004203  00000-0  30092-3 0  9996","PERIAPSIS":"546.167","GP_ID":"207539462","BSTAR":"0.00030092000000","MEAN_MOTION_DOT":"0.00004203","CENTER_NAME":"EARTH","SEMIMAJOR_AXIS":"6925.374","RCS_SIZE":"LARGE","TLE_LINE2":"2 48378  53.0538 256.7863 0001548  73.1504 286.9655 15.06391810 64871","OBJECT_ID":"2021-038AB","ARG_OF_PERICENTER":"73.1504","TIME_SYSTEM":"UTC","MEAN_MOTION_DDOT":"0.0000000000000","EPOCH":"2022-07-06T12:54:34.353504","OBJECT_TYPE":"PAYLOAD","DECAY_DATE":null}];
